KUIPER-00016            
1 63732U 25088J   25214.58334491 -.00029484  00000+0 -20508-2 0  9990
2 63732  51.8879   2.1861 0010321  67.6358 197.9683 15.04809546 14854
KUIPER-00018            
1 63733U 25088K   25214.58334491 -.00740869  00000+0 -32627-1 0  9992
2 63733  51.8769 356.9483 0006295  84.9321 310.5767 15.23735602 14937
KUIPER-00019            
1 63734U 25088L   25214.58334491 -.00814668  00000+0 -28678-1 0  9993
2 63734  51.8725 356.2533 0005752  91.9770 269.5621 15.31283560 14945
KUIPER-00020            
1 63735U 25088M   25214.58334491 -.00555663  00000+0 -27807-1 0  9994
2 63735  51.8839 357.8186 0007626  80.8148 205.8977 15.19104934 15122
KUIPER-00021            
1 63736U 25088N   25214.58334491 -.00027466  00000+0 -13650-2 0  9992
2 63736  51.8734 358.4068 0006152  91.8410 305.7580 15.16895812 14959
KUIPER-00023            
1 63737U 25088P   25214.25002315 -.00715991  00000+0 -39719-1 0  9994
2 63737  51.8830   0.7006 0010031  87.3133 298.5028 15.15718780 15199
KUIPER-00024            
1 63738U 25088Q   25214.37036522  .00018203  00000+0  47802-3 0  9999
2 63738  51.8728 356.3478 0001075 105.6989 254.4117 15.38674481 15396
KUIPER-00025            
1 63739U 25088R   25214.58334491 -.00012818  00000+0 -53797-3 0  9997
2 63739  51.8773 357.0115 0008398  68.7463 247.4477 15.22114454 15252
