<?xml version="1.0" encoding="UTF-8"?>
<ndm xmlns:xsi="http://www.w3.org/2001/XMLSchema-instance" xsi:noNamespaceSchemaLocation="https://sanaregistry.org/r/ndmxml_unqualified/ndmxml-2.0.0-master-2.0.xsd">
<omm id="CCSDS_OMM_VERS" version="2.0">
<header><CREATION_DATE/><ORIGINATOR/></header><body><segment><metadata><OBJECT_NAME>KUIPER-00016</OBJECT_NAME><OBJECT_ID>2025-088J</OBJECT_ID><CENTER_NAME>EARTH</CENTER_NAME><REF_FRAME>TEME</REF_FRAME><TIME_SYSTEM>UTC</TIME_SYSTEM><MEAN_ELEMENT_THEORY>SGP4</MEAN_ELEMENT_THEORY></metadata><data><meanElements><EPOCH>2025-08-02T14:00:01.000224</EPOCH><MEAN_MOTION>15.04809546</MEAN_MOTION><ECCENTRICITY>.0010321</ECCENTRICITY><INCLINATION>51.8879</INCLINATION><RA_OF_ASC_NODE>2.1861</RA_OF_ASC_NODE><ARG_OF_PERICENTER>67.6358</ARG_OF_PERICENTER><MEAN_ANOMALY>197.9683</MEAN_ANOMALY></meanElements><tleParameters><EPHEMERIS_TYPE>0</EPHEMERIS_TYPE><CLASSIFICATION_TYPE>U</CLASSIFICATION_TYPE><NORAD_CAT_ID>63732</NORAD_CAT_ID><ELEMENT_SET_NO>999</ELEMENT_SET_NO><REV_AT_EPOCH>1485</REV_AT_EPOCH><BSTAR>-.20508E-2</BSTAR><MEAN_MOTION_DOT>-.29484E-3</MEAN_MOTION_DOT><MEAN_MOTION_DDOT>0</MEAN_MOTION_DDOT></tleParameters></data></segment></body></omm>
<omm id="CCSDS_OMM_VERS" version="2.0">
<header><CREATION_DATE/><ORIGINATOR/></header><body><segment><metadata><OBJECT_NAME>KUIPER-00018</OBJECT_NAME><OBJECT_ID>2025-088K</OBJECT_ID><CENTER_NAME>EARTH</CENTER_NAME><REF_FRAME>TEME</REF_FRAME><TIME_SYSTEM>UTC</TIME_SYSTEM><MEAN_ELEMENT_THEORY>SGP4</MEAN_ELEMENT_THEORY></metadata><data><meanElements><EPOCH>2025-08-02T14:00:01.000224</EPOCH><MEAN_MOTION>15.23735602</MEAN_MOTION><ECCENTRICITY>.0006295</ECCENTRICITY><INCLINATION>51.8769</INCLINATION><RA_OF_ASC_NODE>356.9483</RA_OF_ASC_NODE><ARG_OF_PERICENTER>84.9321</ARG_OF_PERICENTER><MEAN_ANOMALY>310.5767</MEAN_ANOMALY></meanElements><tleParameters><EPHEMERIS_TYPE>0</EPHEMERIS_TYPE><CLASSIFICATION_TYPE>U</CLASSIFICATION_TYPE><NORAD_CAT_ID>63733</NORAD_CAT_ID><ELEMENT_SET_NO>999</ELEMENT_SET_NO><REV_AT_EPOCH>1493</REV_AT_EPOCH><BSTAR>-.32627E-1</BSTAR><MEAN_MOTION_DOT>-.740869E-2</MEAN_MOTION_DOT><MEAN_MOTION_DDOT>0</MEAN_MOTION_DDOT></tleParameters></data></segment></body></omm>
<omm id="CCSDS_OMM_VERS" version="2.0">
<header><CREATION_DATE/><ORIGINATOR/></header><body><segment><metadata><OBJECT_NAME>KUIPER-00019</OBJECT_NAME><OBJECT_ID>2025-088L</OBJECT_ID><CENTER_NAME>EARTH</CENTER_NAME><REF_FRAME>TEME</REF_FRAME><TIME_SYSTEM>UTC</TIME_SYSTEM><MEAN_ELEMENT_THEORY>SGP4</MEAN_ELEMENT_THEORY></metadata><data><meanElements><EPOCH>2025-08-02T14:00:01.000224</EPOCH><MEAN_MOTION>15.31283560</MEAN_MOTION><ECCENTRICITY>.0005752</ECCENTRICITY><INCLINATION>51.8725</INCLINATION><RA_OF_ASC_NODE>356.2533</RA_OF_ASC_NODE><ARG_OF_PERICENTER>91.9770</ARG_OF_PERICENTER><MEAN_ANOMALY>269.5621</MEAN_ANOMALY></meanElements><tleParameters><EPHEMERIS_TYPE>0</EPHEMERIS_TYPE><CLASSIFICATION_TYPE>U</CLASSIFICATION_TYPE><NORAD_CAT_ID>63734</NORAD_CAT_ID><ELEMENT_SET_NO>999</ELEMENT_SET_NO><REV_AT_EPOCH>1494</REV_AT_EPOCH><BSTAR>-.28678E-1</BSTAR><MEAN_MOTION_DOT>-.814668E-2</MEAN_MOTION_DOT><MEAN_MOTION_DDOT>0</MEAN_MOTION_DDOT></tleParameters></data></segment></body></omm>
<omm id="CCSDS_OMM_VERS" version="2.0">
<header><CREATION_DATE/><ORIGINATOR/></header><body><segment><metadata><OBJECT_NAME>KUIPER-00020</OBJECT_NAME><OBJECT_ID>2025-088M</OBJECT_ID><CENTER_NAME>EARTH</CENTER_NAME><REF_FRAME>TEME</REF_FRAME><TIME_SYSTEM>UTC</TIME_SYSTEM><MEAN_ELEMENT_THEORY>SGP4</MEAN_ELEMENT_THEORY></metadata><data><meanElements><EPOCH>2025-08-02T14:00:01.000224</EPOCH><MEAN_MOTION>15.19104934</MEAN_MOTION><ECCENTRICITY>.0007626</ECCENTRICITY><INCLINATION>51.8839</INCLINATION><RA_OF_ASC_NODE>357.8186</RA_OF_ASC_NODE><ARG_OF_PERICENTER>80.8148</ARG_OF_PERICENTER><MEAN_ANOMALY>205.8977</MEAN_ANOMALY></meanElements><tleParameters><EPHEMERIS_TYPE>0</EPHEMERIS_TYPE><CLASSIFICATION_TYPE>U</CLASSIFICATION_TYPE><NORAD_CAT_ID>63735</NORAD_CAT_ID><ELEMENT_SET_NO>999</ELEMENT_SET_NO><REV_AT_EPOCH>1512</REV_AT_EPOCH><BSTAR>-.27807E-1</BSTAR><MEAN_MOTION_DOT>-.555663E-2</MEAN_MOTION_DOT><MEAN_MOTION_DDOT>0</MEAN_MOTION_DDOT></tleParameters></data></segment></body></omm>
<omm id="CCSDS_OMM_VERS" version="2.0">
<header><CREATION_DATE/><ORIGINATOR/></header><body><segment><metadata><OBJECT_NAME>KUIPER-00021</OBJECT_NAME><OBJECT_ID>2025-088N</OBJECT_ID><CENTER_NAME>EARTH</CENTER_NAME><REF_FRAME>TEME</REF_FRAME><TIME_SYSTEM>UTC</TIME_SYSTEM><MEAN_ELEMENT_THEORY>SGP4</MEAN_ELEMENT_THEORY></metadata><data><meanElements><EPOCH>2025-08-02T14:00:01.000224</EPOCH><MEAN_MOTION>15.16895812</MEAN_MOTION><ECCENTRICITY>.0006152</ECCENTRICITY><INCLINATION>51.8734</INCLINATION><RA_OF_ASC_NODE>358.4068</RA_OF_ASC_NODE><ARG_OF_PERICENTER>91.8410</ARG_OF_PERICENTER><MEAN_ANOMALY>305.7580</MEAN_ANOMALY></meanElements><tleParameters><EPHEMERIS_TYPE>0</EPHEMERIS_TYPE><CLASSIFICATION_TYPE>U</CLASSIFICATION_TYPE><NORAD_CAT_ID>63736</NORAD_CAT_ID><ELEMENT_SET_NO>999</ELEMENT_SET_NO><REV_AT_EPOCH>1495</REV_AT_EPOCH><BSTAR>-.1365E-2</BSTAR><MEAN_MOTION_DOT>-.27466E-3</MEAN_MOTION_DOT><MEAN_MOTION_DDOT>0</MEAN_MOTION_DDOT></tleParameters></data></segment></body></omm>
<omm id="CCSDS_OMM_VERS" version="2.0">
<header><CREATION_DATE/><ORIGINATOR/></header><body><segment><metadata><OBJECT_NAME>KUIPER-00023</OBJECT_NAME><OBJECT_ID>2025-088P</OBJECT_ID><CENTER_NAME>EARTH</CENTER_NAME><REF_FRAME>TEME</REF_FRAME><TIME_SYSTEM>UTC</TIME_SYSTEM><MEAN_ELEMENT_THEORY>SGP4</MEAN_ELEMENT_THEORY></metadata><data><meanElements><EPOCH>2025-08-02T06:00:02.000160</EPOCH><MEAN_MOTION>15.15718780</MEAN_MOTION><ECCENTRICITY>.0010031</ECCENTRICITY><INCLINATION>51.8830</INCLINATION><RA_OF_ASC_NODE>0.7006</RA_OF_ASC_NODE><ARG_OF_PERICENTER>87.3133</ARG_OF_PERICENTER><MEAN_ANOMALY>298.5028</MEAN_ANOMALY></meanElements><tleParameters><EPHEMERIS_TYPE>0</EPHEMERIS_TYPE><CLASSIFICATION_TYPE>U</CLASSIFICATION_TYPE><NORAD_CAT_ID>63737</NORAD_CAT_ID><ELEMENT_SET_NO>999</ELEMENT_SET_NO><REV_AT_EPOCH>1519</REV_AT_EPOCH><BSTAR>-.39719E-1</BSTAR><MEAN_MOTION_DOT>-.715991E-2</MEAN_MOTION_DOT><MEAN_MOTION_DDOT>0</MEAN_MOTION_DDOT></tleParameters></data></segment></body></omm>
<omm id="CCSDS_OMM_VERS" version="2.0">
<header><CREATION_DATE/><ORIGINATOR/></header><body><segment><metadata><OBJECT_NAME>KUIPER-00024</OBJECT_NAME><OBJECT_ID>2025-088Q</OBJECT_ID><CENTER_NAME>EARTH</CENTER_NAME><REF_FRAME>TEME</REF_FRAME><TIME_SYSTEM>UTC</TIME_SYSTEM><MEAN_ELEMENT_THEORY>SGP4</MEAN_ELEMENT_THEORY></metadata><data><meanElements><EPOCH>2025-08-02T08:53:19.555008</EPOCH><MEAN_MOTION>15.38674481</MEAN_MOTION><ECCENTRICITY>.0001075</ECCENTRICITY><INCLINATION>51.8728</INCLINATION><RA_OF_ASC_NODE>356.3478</RA_OF_ASC_NODE><ARG_OF_PERICENTER>105.6989</ARG_OF_PERICENTER><MEAN_ANOMALY>254.4117</MEAN_ANOMALY></meanElements><tleParameters><EPHEMERIS_TYPE>0</EPHEMERIS_TYPE><CLASSIFICATION_TYPE>U</CLASSIFICATION_TYPE><NORAD_CAT_ID>63738</NORAD_CAT_ID><ELEMENT_SET_NO>999</ELEMENT_SET_NO><REV_AT_EPOCH>1539</REV_AT_EPOCH><BSTAR>.47802E-3</BSTAR><MEAN_MOTION_DOT>.18203E-3</MEAN_MOTION_DOT><MEAN_MOTION_DDOT>0</MEAN_MOTION_DDOT></tleParameters></data></segment></body></omm>
<omm id="CCSDS_OMM_VERS" version="2.0">
<header><CREATION_DATE/><ORIGINATOR/></header><body><segment><metadata><OBJECT_NAME>KUIPER-00025</OBJECT_NAME><OBJECT_ID>2025-088R</OBJECT_ID><CENTER_NAME>EARTH</CENTER_NAME><REF_FRAME>TEME</REF_FRAME><TIME_SYSTEM>UTC</TIME_SYSTEM><MEAN_ELEMENT_THEORY>SGP4</MEAN_ELEMENT_THEORY></metadata><data><meanElements><EPOCH>2025-08-02T14:00:01.000224</EPOCH><MEAN_MOTION>15.22114454</MEAN_MOTION><ECCENTRICITY>.0008398</ECCENTRICITY><INCLINATION>51.8773</INCLINATION><RA_OF_ASC_NODE>357.0115</RA_OF_ASC_NODE><ARG_OF_PERICENTER>68.7463</ARG_OF_PERICENTER><MEAN_ANOMALY>247.4477</MEAN_ANOMALY></meanElements><tleParameters><EPHEMERIS_TYPE>0</EPHEMERIS_TYPE><CLASSIFICATION_TYPE>U</CLASSIFICATION_TYPE><NORAD_CAT_ID>63739</NORAD_CAT_ID><ELEMENT_SET_NO>999</ELEMENT_SET_NO><REV_AT_EPOCH>1525</REV_AT_EPOCH><BSTAR>-.53797E-3</BSTAR><MEAN_MOTION_DOT>-.12818E-3</MEAN_MOTION_DOT><MEAN_MOTION_DDOT>0</MEAN_MOTION_DDOT></tleParameters></data></segment></body></omm>

</ndm>
